[{"OBJECT_NAME":"OBJECT L","OBJECT_ID":"2023-085L","EPOCH":"2026-03-09T23:02:21.999840","MEAN_MOTION":15.29079976,"ECCENTRICITY":0.0005428,"INCLINATION":97.486,"RA_OF_ASC_NODE":178.8598,"ARG_OF_PERICENTER":50.8528,"MEAN_ANOMALY":309.3193,"EPHEMERIS_TYPE":0,"CLASSIFICATION_TYPE":"U","NORAD_CAT_ID":57014,"ELEMENT_SET_NO":999,"REV_AT_EPOCH":15144,"BSTAR":0.00063462603,"MEAN_MOTION_DOT":0.00017871,"MEAN_MOTION_DDOT":0},{"OBJECT_NAME":"STARLINK-32301","OBJECT_ID":"2024-193D","EPOCH":"2026-03-09T07:16:35.172768","MEAN_MOTION":15.30203567,"ECCENTRICITY":0.00013117,"INCLINATION":53.1606,"RA_OF_ASC_NODE":93.0765,"ARG_OF_PERICENTER":78.4534,"MEAN_ANOMALY":281.6614,"EPHEMERIS_TYPE":0,"CLASSIFICATION_TYPE":"U","NORAD_CAT_ID":61664,"ELEMENT_SET_NO":999,"REV_AT_EPOCH":7646,"BSTAR":-0.00018312761,"MEAN_MOTION_DOT":-5.779e-5,"MEAN_MOTION_DDOT":0}]
